city name,postcode,latitude,longitude
ST BRIEUC,22000,48.514851378, -2.763309782
LANVALLAY,22100,48.451576812, -2.011490444
TADEN,22100,48.487864247, -2.054221532
BRUSVILY,22100,48.393989061, -2.117702839
BOBITAL,22100,48.414616381, -2.097435549
QUEVERT,22100,48.463001441, -2.085788252
LE HINGLE,22100,48.397989941, -2.082844139
LANVALLAY,22100,48.451576812, -2.011490444
ST HELEN,22100,48.466004612, -1.959266327
ST SAMSON SUR RANCE,22100,48.491427043, -2.01862491
TREVRON,22100,48.388856965, -2.068150871
QUEVERT,22100,48.463001441, -2.085788252
TRELIVAN,22100,48.430507521, -2.106615694
DINAN,22100,48.446122862, -2.051305632
LANVALLAY,22100,48.451576812, -2.011490444
ST SAMSON SUR RANCE,22100,48.491427043, -2.01862491
AUCALEUC,22100,48.451791839, -2.127617919
CALORGUEN,22100,48.405091903, -2.025984997
DINAN,22100,48.446122862, -2.051305632
ST CARNE,22100,48.419213025, -2.055108626
ROSTRENEN,22110,48.22135025, -3.311657917
PLOUNEVEZ QUINTIN,22110,48.28537131, -3.240792192
MELLIONNEC,22110,48.168474344, -3.290144822
PLOUGUERNEVEL,22110,48.234168387, -3.24730828
ROSTRENEN,22110,48.22135025, -3.311657917
KERGRIST MOELOU,22110,48.294604205, -3.325603286
TREMARGAT,22110,48.330117497, -3.26716046
GLOMEL,22110,48.205708613, -3.388055268
HILLION,22120,48.50299934, -2.646209136
HILLION,22120,48.50299934, -2.646209136
QUESSOY,22120,48.426865219, -2.656445334
YFFINIAC,22120,48.4679349, -2.681727195
POMMERET,22120,48.458489726, -2.622224727
QUESSOY,22120,48.426865219, -2.656445334
LANDEBIA,22130,48.515181456, -2.337313612
PLANCOET,22130,48.514601641, -2.21932543
CORSEUL,22130,48.483035588, -2.166319018
CREHEN,22130,48.53989692, -2.190296083
ST LORMEL,22130,48.551527395, -2.235622513
BOURSEUL,22130,48.467127385, -2.264932118
PLOREC SUR ARGUENON,22130,48.463606587, -2.301044567
LANGUENAN,22130,48.511472449, -2.133207954
PLEVEN,22130,48.491284536, -2.321190205
PLUDUNO,22130,48.523804319, -2.280574254
BEGARD,22140,48.634782583, -3.291535083
BEGARD,22140,48.634782583, -3.291535083
BEGARD,22140,48.634782583, -3.291535083
BERHET,22140,48.697506385, -3.30845977
CAVAN,22140,48.682154744, -3.352407327
KERMOROC H,22140,48.614871381, -3.20363397
LANDEBAERON,22140,48.637650067, -3.204871813
BRELIDY,22140,48.64928975, -3.227795453
PLUZUNET,22140,48.636741845, -3.37148292
TONQUEDEC,22140,48.6758572, -3.400382454
PRAT,22140,48.682032486, -3.298021229
ST LAURENT,22140,48.615843029, -3.242977938
COATASCORN,22140,48.669567466, -3.255263649
BEGARD,22140,48.634782583, -3.291535083
GAUSSON,22150,48.293055662, -2.76120763
PLOUGUENAST LANGAST,22150,48.279779756, -2.690027031
PLOEUC L HERMITAGE,22150,48.340742832, -2.795292566
HENON,22150,48.386748792, -2.683779789
PLOEUC L HERMITAGE,22150,48.340742832, -2.795292566
PLOUGUENAST LANGAST,22150,48.279779756, -2.690027031
PLEMY,22150,48.33814777, -2.676607262
ST CARREUC,22150,48.404116195, -2.749730127
CALANHEL,22160,48.440621575, -3.475563201
PLOURAC H,22160,48.418504423, -3.551745494
ST SERVAIS,22160,48.386616103, -3.374269469
CARNOET,22160,48.3592397, -3.532103641
LA CHAPELLE NEUVE,22160,48.465714134, -3.439967064
DUAULT,22160,48.364888617, -3.436000756
PLUSQUELLEC,22160,48.399278508, -3.4840892
LOHUEC,22160,48.462189358, -3.526941475
MAEL PESTIVIEN,22160,48.403766536, -3.290294541
ST NICODEME,22160,48.354078023, -3.339845092
BULAT PESTIVIEN,22160,48.434294258, -3.332709572
CALLAC,22160,48.421972056, -3.416489607
CHATELAUDREN PLOUAGAT,22170,48.530385904, -2.989575344
ST JEAN KERDANIEL,22170,48.55256884, -3.03449897
PLERNEUF,22170,48.505787794, -2.88048429
BRINGOLO,22170,48.577161164, -3.006333617
PLELO,22170,48.554037429, -2.927614501
PLOUVARA,22170,48.497149085, -2.925239702
LANRODEC,22170,48.499564605, -3.043315239
BOQUEHO,22170,48.468321251, -2.984925986
PLELO,22170,48.554037429, -2.927614501
CHATELAUDREN PLOUAGAT,22170,48.530385904, -2.989575344
PLERIN,22190,48.543995224, -2.769716199
PLERIN,22190,48.543995224, -2.769716199
PLERIN,22190,48.543995224, -2.769716199
SQUIFFIEC,22200,48.637395641, -3.166728557
TREGONNEAU,22200,48.613932658, -3.163215346
GRACES,22200,48.544781997, -3.182427449
GUINGAMP,22200,48.560629908, -3.153482472
POMMERIT LE VICOMTE,22200,48.61825596, -3.102894322
PLOUISY,22200,48.583991478, -3.191243271
GRACES,22200,48.544781997, -3.182427449
LE MERZER,22200,48.581754896, -3.074995937
MOUSTERU,22200,48.528822719, -3.234921168
PABU,22200,48.582715843, -3.143189452
ST AGATHON,22200,48.563040721, -3.100814066
COETLOGON,22210,48.132373543, -2.543199062
LA PRENESSAYE,22210,48.185932802, -2.647777687
LE CAMBOUT,22210,48.059112645, -2.620841932
PLEMET,22210,48.174589649, -2.597019243
ST ETIENNE DU GUE DE L ISLE,22210,48.085702153, -2.643117223
LA CHEZE,22210,48.134140598, -2.662484355
PLEMET,22210,48.174589649, -2.597019243
PLUMIEUX,22210,48.106145862, -2.591222727
MINIHY TREGUIER,22220,48.767972513, -3.259389123
TREGUIER,22220,48.784328349, -3.23236607
PLOUGUIEL,22220,48.804944488, -3.244652701
TREDARZEC,22220,48.791135946, -3.201092476
LAURENAN,22230,48.215039749, -2.519094852
LOSCOUET SUR MEU,22230,48.175754545, -2.25109994
MERILLAC,22230,48.24993278, -2.391017737
ST LAUNEUC,22230,48.232054792, -2.354098926
GOMENE,22230,48.180098194, -2.49202851
ILLIFAUT,22230,48.144442615, -2.336135453
MERDRIGNAC,22230,48.193667485, -2.396224664
ST VRAN,22230,48.24330087, -2.45695156
TREMOREL,22230,48.19134536, -2.302331058
FREHEL,22240,48.634581636, -2.361916102
LA BOUILLIE,22240,48.583588595, -2.441947295
FREHEL,22240,48.634581636, -2.361916102
FREHEL,22240,48.634581636, -2.361916102
PLURIEN,22240,48.609774553, -2.400184693
PLEVENON,22240,48.656473906, -2.319970446
PLUMAUGAT,22250,48.245436221, -2.230869481
EREAC,22250,48.274286886, -2.343934976
LANRELAS,22250,48.246159706, -2.295194597
SEVIGNAC,22250,48.332359693, -2.319798664
ROUILLAC,22250,48.306583785, -2.369103265
TREDIAS,22250,48.365029092, -2.22318559
BROONS,22250,48.311312015, -2.240918454
TREMEUR,22250,48.350654175, -2.268543337
PLOUEC DU TRIEUX,22260,48.672183038, -3.187594155
QUEMPER GUEZENNEC,22260,48.699959286, -3.108934343
PLOEZAL,22260,48.716832645, -3.180858529
RUNAN,22260,48.686788237, -3.227091755
ST CLET,22260,48.66983713, -3.137436531
PONTRIEUX,22260,48.699798194, -3.15915353
JUGON LES LACS COMMUNE NOUVELLE,22270,48.406110996, -2.326902147
MEGRIT,22270,48.389735749, -2.267409842
JUGON LES LACS COMMUNE NOUVELLE,22270,48.406110996, -2.326902147
JUGON LES LACS COMMUNE NOUVELLE,22270,48.406110996, -2.326902147
JUGON LES LACS COMMUNE NOUVELLE,22270,48.406110996, -2.326902147
PLEDELIAC,22270,48.468676854, -2.371622581
ST RIEUL,22270,48.442755413, -2.420466653
GOUDELIN,22290,48.603446979, -3.022823933
TREGUIDEL,22290,48.600294517, -2.942781682
TREMEVEN,22290,48.671359237, -3.032182909
TRESSIGNAUX,22290,48.610435981, -2.975254412
LANLEFF,22290,48.693054909, -3.046367898
PLEHEDEL,22290,48.694654588, -3.006755586
GOMMENEC H,22290,48.637393035, -3.04781756
LANVOLLON,22290,48.633506703, -2.990158549
PLEGUIEN,22290,48.634839291, -2.948372029
PLUDUAL,22290,48.666240012, -2.986208201
ST GILLES LES BOIS,22290,48.657131642, -3.090866393
TREVEREC,22290,48.659311424, -3.055160991
LE FAOUET,22290,48.67894472, -3.073897699
LANNEBERT,22290,48.650554383, -3.009094544
LANNION,22300,48.743719598, -3.46130389
TREDREZ LOCQUEMEAU,22300,48.70786489, -3.563569387
LANMERIN,22300,48.739896973, -3.357535431
PLOULEC H,22300,48.71803918, -3.500180988
PLOUMILLIAU,22300,48.683792046, -3.513471005
CAOUENNEC LANVEZEAC,22300,48.705893906, -3.367553771
CAOUENNEC LANVEZEAC,22300,48.705893906, -3.367553771
PLOULEC H,22300,48.71803918, -3.500180988
ROSPEZ,22300,48.735707442, -3.386852444
ST MICHEL EN GREVE,22300,48.674343414, -3.55664739
LANNION,22300,48.743719598, -3.46130389
PLOUBEZRE,22300,48.685542393, -3.448411567
TREDREZ LOCQUEMEAU,22300,48.70786489, -3.563569387
PLESTIN LES GREVES,22310,48.647713454, -3.620177657
PLUFUR,22310,48.610933451, -3.572433927
PLESTIN LES GREVES,22310,48.647713454, -3.620177657
TREMEL,22310,48.60491008, -3.617901524
TREDUDER,22310,48.654793702, -3.566579335
ST MARTIN DES PRES,22320,48.305324307, -2.964676113
LE BODEO,22320,48.326240143, -2.921354841
LE HAUT CORLAY,22320,48.340493232, -3.03212617
PLUSSULIEN,22320,48.278224784, -3.065549062
CORLAY,22320,48.309913353, -3.037663372
LA HARMOYE,22320,48.346019399, -2.968783102
ST MAYEUX,22320,48.264036049, -3.015630501
LE MENE,22330,48.282633111, -2.531186445
LE MENE,22330,48.282633111, -2.531186445
LE MENE,22330,48.282633111, -2.531186445
LE MENE,22330,48.282633111, -2.531186445
LE MENE,22330,48.282633111, -2.531186445
LE MENE,22330,48.282633111, -2.531186445
LE MENE,22330,48.282633111, -2.531186445
MAEL CARHAIX,22340,48.288071267, -3.410397882
TREBRIVAN,22340,48.31013059, -3.480978972
LE MOUSTOIR,22340,48.273660501, -3.49127303
LOCARN,22340,48.332425147, -3.409971201
TREFFRIN,22340,48.29850839, -3.526766904
TREOGAN,22340,48.186935466, -3.529372716
PAULE,22340,48.227635809, -3.460930916
PLEVIN,22340,48.223693027, -3.516379949
GUENROC,22350,48.313634373, -2.080696693
GUITTE,22350,48.290858999, -2.102009002
ST JOUAN DE L ISLE,22350,48.266376098, -2.178676718
PLUMAUDAN,22350,48.356482801, -2.115088618
LA CHAPELLE BLANCHE,22350,48.268305714, -2.128438871
ST MADEN,22350,48.337612863, -2.068751658
CAULNES,22350,48.302142635, -2.160425566
YVIGNAC LA TOUR,22350,48.349073, -2.170540712
LANGUEUX,22360,48.5000312, -2.709716021
LANGUEUX,22360,48.5000312, -2.709716021
PLENEUF VAL ANDRE,22370,48.583591123, -2.529606692
ST CAST LE GUILDO,22380,48.60362037, -2.248600685
ST CAST LE GUILDO,22380,48.60362037, -2.248600685
BOURBRIAC,22390,48.466140899, -3.199849798
PONT MELVEZ,22390,48.474317873, -3.284974982
ST ADRIEN,22390,48.489391674, -3.132212629
GURUNHUEL,22390,48.508439203, -3.288755414
HENANSAL,22400,48.537926258, -2.447839535
LAMBALLE ARMOR,22400,48.485734593, -2.472990332
LAMBALLE ARMOR,22400,48.485734593, -2.472990332
LAMBALLE ARMOR,22400,48.485734593, -2.472990332
LAMBALLE ARMOR,22400,48.485734593, -2.472990332
LAMBALLE ARMOR,22400,48.485734593, -2.472990332
LANDEHEN,22400,48.422074366, -2.541774632
ST DENOUAL,22400,48.518755854, -2.383679307
QUINTENIC,22400,48.510245829, -2.42140181
ANDEL,22400,48.49410569, -2.551043716
COETMIEUX,22400,48.48660486, -2.592206508
LAMBALLE ARMOR,22400,48.485734593, -2.472990332
LAMBALLE ARMOR,22400,48.485734593, -2.472990332
LAMBALLE ARMOR,22400,48.485734593, -2.472990332
NOYAL,22400,48.451110783, -2.463797774
ST ALBAN,22400,48.554724543, -2.508754851
LAMBALLE ARMOR,22400,48.485734593, -2.472990332
TREVENEUC,22410,48.659853811, -2.873919052
PLOURHAN,22410,48.631090986, -2.881998192
ST QUAY PORTRIEUX,22410,48.654096289, -2.84326682
ST QUAY PORTRIEUX,22410,48.654096289, -2.84326682
LANTIC,22410,48.60420815, -2.898801204
LANTIC,22410,48.60420815, -2.898801204
PLOUARET,22420,48.619491788, -3.483272817
LE VIEUX MARCHE,22420,48.613571316, -3.438163224
LANVELLEC,22420,48.606768949, -3.52790284
PLOUZELAMBRE,22420,48.647968105, -3.536868904
TREGROM,22420,48.594852208, -3.402678522
ERQUY,22430,48.619417039, -2.458382714
ERQUY,22430,48.619417039, -2.458382714
ERQUY,22430,48.619417039, -2.458382714
LA MEAUGON,22440,48.504424135, -2.846723287
PLOUFRAGAN,22440,48.487289354, -2.808099038
PLOUFRAGAN,22440,48.487289354, -2.808099038
TREMUSON,22440,48.524530239, -2.848563502
CAMLEZ,22450,48.783206246, -3.315401686
COATREVEN,22450,48.763417042, -3.32597473
LA ROCHE JAUDY,22450,48.731681808, -3.233237382
LA ROCHE JAUDY,22450,48.731681808, -3.233237382
LA ROCHE JAUDY,22450,48.731681808, -3.233237382
LA ROCHE JAUDY,22450,48.731681808, -3.233237382
LANGOAT,22450,48.734972054, -3.297972166
TROGUERY,22450,48.759726244, -3.224558185
KERMARIA SULARD,22450,48.773490968, -3.373389455
MANTALLOT,22450,48.71048125, -3.292636862
QUEMPERVEN,22450,48.725723061, -3.336661973
TREZENY,22450,48.754383331, -3.361108888
UZEL,22460,48.280960499, -2.847817638
ALLINEUC,22460,48.311573307, -2.867064963
GRACE UZEL,22460,48.250373749, -2.794165533
MERLEAC,22460,48.272646106, -2.911188349
ST HERVE,22460,48.274153231, -2.812255966
ST THELO,22460,48.246378672, -2.840953157
LE QUILLIO,22460,48.240376846, -2.897916144
PLOUEZEC,22470,48.738584393, -2.979238556
PLOUEZEC,22470,48.738584393, -2.979238556
KERIEN,22480,48.409393401, -3.230681705
KERPERT,22480,48.389912955, -3.136411171
ST NICOLAS DU PELEM,22480,48.322747291, -3.164354256
PEUMERIT QUINTIN,22480,48.363361135, -3.285099446
ST CONNAN,22480,48.412455613, -3.075119081
ST GILLES PLIGEAUX,22480,48.379694715, -3.086908606
STE TREPHINE,22480,48.265763057, -3.169670965
LANRIVAIN,22480,48.359080915, -3.215237264
MAGOAR,22480,48.401214491, -3.17709856
CANIHUEL,22480,48.337249841, -3.095904413
LANGROLAY SUR RANCE,22490,48.553083641, -2.014425393
PLESLIN TRIGAVOU,22490,48.527547035, -2.071277209
PLESLIN TRIGAVOU,22490,48.527547035, -2.071277209
TREMEREUC,22490,48.560306748, -2.063742233
PLOUER SUR RANCE,22490,48.525076621, -2.006473125
PAIMPOL,22500,48.773414138, -3.054779415
KERFOT,22500,48.736872066, -3.031479505
ST TRIMOEL,22510,48.393649561, -2.541287701
TREBRY,22510,48.345686971, -2.557665973
MONCONTOUR,22510,48.358238515, -2.633786769
PENGUILY,22510,48.371268497, -2.494263392
TREDANIEL,22510,48.346521095, -2.60527508
BREHAND,22510,48.393711255, -2.588788044
ST GLEN,22510,48.353177521, -2.521276583
BINIC ETABLES SUR MER,22520,48.616851128, -2.837862888
GUERLEDAN,22530,48.201483257, -2.957966114
CAUREL,22530,48.217245547, -3.039755655
ST GILLES VIEUX MARCHE,22530,48.250201246, -2.969558154
GUERLEDAN,22530,48.201483257, -2.957966114
ST CONNEC,22530,48.18018553, -2.925741646
TREGLAMUS,22540,48.556965337, -3.254627352
PEDERNEC,22540,48.588026489, -3.277099925
LOUARGAT,22540,48.561117357, -3.340901278
PEDERNEC,22540,48.588026489, -3.277099925
LOUARGAT,22540,48.561117357, -3.340901278
RUCA,22550,48.561815439, -2.335244671
ST POTAN,22550,48.557421713, -2.293195035
HENANBIHEN,22550,48.557983876, -2.381556448
MATIGNON,22550,48.6016128, -2.290149818
PLEBOULLE,22550,48.594827848, -2.333589634
PLEUMEUR BODOU,22560,48.785426229, -3.518763251
TREBEURDEN,22560,48.771011102, -3.558020545
PLEUMEUR BODOU,22560,48.785426229, -3.518763251
PLEUMEUR BODOU,22560,48.785426229, -3.518763251
BON REPOS SUR BLAVET,22570,48.223995004, -3.123600422
PLELAUFF,22570,48.198310035, -3.203805807
LESCOUET GOUAREC,22570,48.169287241, -3.206383116
BON REPOS SUR BLAVET,22570,48.223995004, -3.123600422
ST IGEAUX,22570,48.277397126, -3.114492415
GOUAREC,22570,48.235573754, -3.19559282
BON REPOS SUR BLAVET,22570,48.223995004, -3.123600422
PLOUHA,22580,48.682031087, -2.931519031
LANLOUP,22580,48.709665867, -2.968621964
PLOUHA,22580,48.682031087, -2.931519031
PORDIC,22590,48.567376479, -2.830210008
PORDIC,22590,48.567376479, -2.830210008
PORDIC,22590,48.567376479, -2.830210008
TREGOMEUR,22590,48.567347972, -2.883370675
ST CARADEC,22600,48.191890426, -2.867529495
ST MAUDAN,22600,48.111270043, -2.768196772
TREVE,22600,48.2162507, -2.807521994
ST BARNABE,22600,48.138231608, -2.702078881
HEMONSTOIR,22600,48.157234687, -2.850013854
LOUDEAC,22600,48.17440042, -2.750533945
LA MOTTE,22600,48.231344629, -2.705128661
LANMODEZ,22610,48.845465393, -3.096558927
KERBORS,22610,48.823601194, -3.1817615
PLEUBIAN,22610,48.842891237, -3.134523886
PLEUBIAN,22610,48.842891237, -3.134523886
PLOUBAZLANEC,22620,48.805320954, -3.04473119
PLOUBAZLANEC,22620,48.805320954, -3.04473119
PLOUBAZLANEC,22620,48.805320954, -3.04473119
EVRAN,22630,48.384911528, -1.980060647
ST JUVAT,22630,48.361860772, -2.054404661
LES CHAMPS GERAUX,22630,48.426009281, -1.977655255
ST ANDRE DES EAUX,22630,48.373142744, -2.013146235
LE QUIOU,22630,48.345721771, -1.997145194
TREFUMEL,22630,48.337331903, -2.023930455
ST JUDOCE,22630,48.362761989, -1.954058288
PLENEE JUGON,22640,48.355685105, -2.415212201
TRAMAIN,22640,48.399918388, -2.389069547
LA MALHOURE,22640,48.396390224, -2.494407859
PLESTAN,22640,48.414680231, -2.441318157
BEAUSSAIS SUR MER,22650,48.560466315, -2.136524705
BEAUSSAIS SUR MER,22650,48.560466315, -2.136524705
BEAUSSAIS SUR MER,22650,48.560466315, -2.136524705
TRELEVERN,22660,48.80139516, -3.369686834
TREVOU TREGUIGNEC,22660,48.811886933, -3.34490682
BINIC ETABLES SUR MER,22680,48.616851128, -2.837862888
PLEUDIHEN SUR RANCE,22690,48.509515077, -1.94126291
LA VICOMTE SUR RANCE,22690,48.487850282, -1.983393035
LOUANNEC,22700,48.783589414, -3.412307723
PERROS GUIREC,22700,48.812104419, -3.466956832
ST QUAY PERROS,22700,48.781532784, -3.449716642
PERROS GUIREC,22700,48.812104419, -3.466956832
PERROS GUIREC,22700,48.812104419, -3.466956832
PENVENAN,22710,48.816972706, -3.301924259
PENVENAN,22710,48.816972706, -3.301924259
PENVENAN,22710,48.816972706, -3.301924259
PLESIDY,22720,48.441570694, -3.126099759
ST PEVER,22720,48.482530838, -3.090727046
SENVEN LEHART,22720,48.435248163, -3.065250536
ST FIACRE,22720,48.45524135, -3.052648675
TREGASTEL,22730,48.817228001, -3.507325469
PLEUMEUR GAUTIER,22740,48.80046846, -3.151543243
LEZARDRIEUX,22740,48.803433025, -3.109066355
LEZARDRIEUX,22740,48.803433025, -3.109066355
PLEUDANIEL,22740,48.761963472, -3.154469571
ST JACUT DE LA MER,22750,48.591597419, -2.187270552
LANCIEUX,22770,48.600845234, -2.148315939
PLOUNERIN,22780,48.566496872, -3.548705022
LOGUIVY PLOUGRAS,22780,48.510493753, -3.491728034
PLOUGRAS,22780,48.496584203, -3.564564426
COHINIAC,22800,48.451473972, -2.946720821
LANFAINS,22800,48.36537327, -2.911495111
PLAINE HAUTE,22800,48.443303854, -2.859140189
ST BIHY,22800,48.375421403, -2.967114296
ST BRANDAN,22800,48.389900815, -2.86298438
ST GILDAS,22800,48.422520774, -3.006479202
LE LESLAY,22800,48.423988985, -2.965116606
QUINTIN,22800,48.40333741, -2.911691362
ST DONAN,22800,48.465810862, -2.886521009
LE VIEUX BOURG,22800,48.390679498, -3.003639078
LE FOEIL,22800,48.417427349, -2.91498171
PLOUGONVER,22810,48.485023131, -3.374817472
BELLE ISLE EN TERRE,22810,48.531064511, -3.381836707
PLOUNEVEZ MOEDEC,22810,48.551149025, -3.445164456
BELLE ISLE EN TERRE,22810,48.531064511, -3.381836707
LOC ENVEL,22810,48.509789897, -3.409769302
PLOUGRESCANT,22820,48.84000535, -3.239697939
PLOUASNE,22830,48.311805596, -2.007927734
PLOURIVO,22860,48.741509933, -3.091598736
ILE DE BREHAT,22870,48.858114867, -3.003513815
YVIAS,22930,48.714638904, -3.046277646
PLAINTEL,22940,48.410267274, -2.810348049
ST JULIEN,22940,48.447523116, -2.817899305
TREGUEUX,22950,48.480324646, -2.745100895
TREGUEUX,22950,48.480324646, -2.745100895
PLEDRAN,22960,48.443222941, -2.745103235
PLOUMAGOAR,22970,48.530550126, -3.109403481
COADOUT,22970,48.514938411, -3.178680872
ST MICHEL DE PLELAN,22980,48.462517893, -2.221916561
PLELAN LE PETIT,22980,48.426818936, -2.22411872
TREBEDAN,22980,48.40593828, -2.162915474
ST MAUDEZ,22980,48.454479579, -2.182541955
LA LANDEC,22980,48.42566669, -2.183105118
LANGUEDIAS,22980,48.393034923, -2.205716553
ST MELOIR DES BOIS,22980,48.442385045, -2.257028528
VILDE GUINGALAN,22980,48.436341144, -2.151586081
QUIMPER,29000,47.99710101, -4.091096788
LE JUCH,29100,48.055473067, -4.265144911
DOUARNENEZ,29100,48.080138679, -4.328017277
KERLAZ,29100,48.091448262, -4.263538123
POULLAN SUR MER,29100,48.077073132, -4.397638835
DOUARNENEZ,29100,48.080138679, -4.328017277
POULDERGAT,29100,48.04015448, -4.32653951
COMBRIT,29120,47.887144359, -4.164161625
TREMEOC,29120,47.90728335, -4.219951554
PLOMEUR,29120,47.838142718, -4.294387728
ST JEAN TROLIMON,29120,47.868494618, -4.309163849
PONT L ABBE,29120,47.865184932, -4.216780858
ST YVI,29140,47.959951178, -3.93884767
MELGVEN,29140,47.913039105, -3.841855789
ROSPORDEN,29140,47.958176098, -3.800741451
ROSPORDEN,29140,47.958176098, -3.800741451
TOURCH,29140,48.027114963, -3.823394056
DINEAULT,29150,48.217776216, -4.166687626
CAST,29150,48.148889351, -4.11886839
PORT LAUNAY,29150,48.217805158, -4.081894539
ST COULITZ,29150,48.182218707, -4.066884824
CHATEAULIN,29150,48.202954677, -4.073746337
CROZON,29160,48.244914628, -4.491944902
CROZON,29160,48.244914628, -4.491944902
CROZON,29160,48.244914628, -4.491944902
LANVEOC,29160,48.275580525, -4.444441979
ST EVARZEC,29170,47.953775253, -4.009799895
FOUESNANT,29170,47.872601527, -4.016515185
PLEUVEN,29170,47.914844197, -4.046031125
FOUESNANT,29170,47.872601527, -4.016515185
QUEMENEVEN,29180,48.118064644, -4.143925661
LOCRONAN,29180,48.098083169, -4.213158145
PLOGONNEC,29180,48.072806039, -4.158668149
GUENGAT,29180,48.041240587, -4.196044169
LE CLOITRE PLEYBEN,29190,48.258689977, -3.896689605
LOTHEY,29190,48.183845781, -4.025688336
LANNEDERN,29190,48.289441066, -3.902770761
BRASPARTS,29190,48.319459119, -3.950296924
GOUEZEC,29190,48.170053873, -3.972204106
LENNON,29190,48.205463922, -3.903018322
PLEYBEN,29190,48.238063699, -3.975575954
ST RIVOAL,29190,48.34916444, -3.987758119
BREST,29200,48.400345079, -4.502479359
PLOUGONVELIN,29217,48.351092431, -4.718053472
PLOUGONVELIN,29217,48.351092431, -4.718053472
LE CONQUET,29217,48.357025748, -4.762265499
TREBABU,29217,48.370596391, -4.732277761
CLEDER,29233,48.660341605, -4.124313934
LOCQUIREC,29241,48.682930831, -3.667581439
OUESSANT,29242,48.460730638, -5.086013927
POULLAOUEN,29246,48.347877827, -3.643645763
PLOUGOULM,29250,48.656255626, -4.041883832
SIBIRIL,29250,48.66430783, -4.071763438
ST POL DE LEON,29250,48.672617829, -3.988959418
SANTEC,29250,48.699878192, -4.031586179
PLOUEZOC H,29252,48.637223675, -3.815665124
ILE DE BATZ,29253,48.745680755, -4.01493735
ILE MOLENE,29259,48.396523728, -4.958609153
PLOUDANIEL,29260,48.523050138, -4.31379249
KERNOUES,29260,48.593983392, -4.34459697
LESNEVEN,29260,48.579932223, -4.312932262
ST MEEN,29260,48.554758387, -4.258827846
TREGARANTEC,29260,48.549427953, -4.289530514
KERNILIS,29260,48.575392101, -4.411074241
LOC BREVALAIRE,29260,48.554109757, -4.407112848
LE FOLGOET,29260,48.566279876, -4.352323247
LANARVILY,29260,48.560967094, -4.382697134
PLOUIDER,29260,48.601734911, -4.292692293
ST FREGANT,29260,48.599792553, -4.373337455
CLEDEN POHER,29270,48.243110111, -3.664154297
KERGLOFF,29270,48.28018213, -3.645915396
PLOUNEVEZEL,29270,48.312109718, -3.574643154
CARHAIX PLOUGUER,29270,48.268748438, -3.566027483
MOTREFF,29270,48.219797313, -3.562670512
ST HERNIN,29270,48.208122733, -3.61100549
LOCMARIA PLOUZANE,29280,48.371499558, -4.650144094
PLOUZANE,29280,48.377624035, -4.598965851
ST RENAN,29290,48.426041807, -4.62400497
TREOUERGAT,29290,48.494960385, -4.601867967
MILIZAC GUIPRONVEL,29290,48.465048219, -4.567909406
LANRIVOARE,29290,48.466358742, -4.634546977
MILIZAC GUIPRONVEL,29290,48.465048219, -4.567909406
QUIMPERLE,29300,47.856153429, -3.555021762
TREMEVEN,29300,47.902151396, -3.52501355
BAYE,29300,47.85584953, -3.613231761
GUILLIGOMARC H,29300,47.943410977, -3.42611898
MELLAC,29300,47.898564577, -3.587911207
ARZANO,29300,47.893174019, -3.442755537
REDENE,29300,47.85540586, -3.487062187
LOCUNOLE,29310,47.924006006, -3.485584559
QUERRIEN,29310,47.95543352, -3.547539622
RIEC SUR BELON,29340,47.849126475, -3.69050371
MOELAN SUR MER,29350,47.806298901, -3.645593893
MOELAN SUR MER,29350,47.806298901, -3.645593893
CLOHARS CARNOET,29360,47.79449354, -3.566706716
CLOHARS CARNOET,29360,47.79449354, -3.566706716
ELLIANT,29370,48.007860722, -3.902543676
CORAY,29370,48.065941549, -3.85507578
LE TREVOUX,29380,47.888587443, -3.657029043
BANNALEC,29380,47.935239103, -3.695213554
ST THURIEN,29380,47.956751438, -3.619964902
SCAER,29390,48.027810505, -3.730246087
LEUHAN,29390,48.100578004, -3.778505893
PLOUGOURVEST,29400,48.553685459, -4.073314878
LOCMELAR,29400,48.450222544, -4.057921755
PLOUNEVENTER,29400,48.520903829, -4.208927124
BODILIS,29400,48.515319658, -4.120072961
GUIMILIAU,29400,48.481678221, -3.99708811
LANNEUFFRET,29400,48.495889998, -4.20154459
LOC EGUINER,29400,48.47572349, -4.092367277
ST SERVAIS,29400,48.515423871, -4.158215783
LANDIVISIAU,29400,48.516404956, -4.060786056
LAMPAUL GUIMILIAU,29400,48.48372582, -4.04046759
ST SAUVEUR,29400,48.44826592, -4.000249304
PLEYBER CHRIST,29410,48.510673161, -3.871713177
LE CLOITRE ST THEGONNEC,29410,48.459764244, -3.792461128
GUICLAN,29410,48.543150109, -3.979803352
ST THEGONNEC LOC EGUINER,29410,48.502271639, -3.940488625
ST THEGONNEC LOC EGUINER,29410,48.502271639, -3.940488625
PLOUNEOUR MENEZ,29410,48.44573764, -3.880781578
MESPAUL,29420,48.613361533, -4.060717995
PLOUENAN,29420,48.621023413, -3.980405387
PLOUVORN,29420,48.576884782, -4.02218014
LANHOUARNEAU,29430,48.575338355, -4.204440035
PLOUESCAT,29430,48.665530175, -4.180115585
PLOUNEVEZ LOCHRIST,29430,48.619686333, -4.198629545
TREFLEZ,29430,48.626484982, -4.257297839
PLOUGAR,29440,48.556495931, -4.128533435
TREFLAOUENAN,29440,48.626947977, -4.09875115
ST VOUGAY,29440,48.588844328, -4.146285158
ST DERRIEN,29440,48.544602159, -4.186616351
TREZILIDE,29440,48.610049091, -4.084482108
PLOUZEVEDE,29440,48.592434494, -4.095773332
COMMANA,29450,48.410384523, -3.969678094
LE TREHOU,29450,48.3938718, -4.129533872
SIZUN,29450,48.394863914, -4.0450954
IRVILLAC,29460,48.366930178, -4.201413338
DIRINON,29460,48.400850205, -4.269210901
HOPITAL CAMFROUT,29460,48.324256411, -4.238807873
ST ELOY,29460,48.363533908, -4.115385758
DAOULAS,29460,48.35580949, -4.263889359
HANVEC,29460,48.329908986, -4.139712897
LOGONNA DAOULAS,29460,48.328565653, -4.288606627
LOPERHET,29470,48.384149254, -4.313768727
PLOUGASTEL DAOULAS,29470,48.360312232, -4.382679357
LE RELECQ KERHUON,29480,48.403221069, -4.401236783
GUIPAVAS,29490,48.430681972, -4.396439983
ERGUE GABERIC,29500,48.012204176, -4.00787791
BRIEC,29510,48.093786817, -4.020429806
EDERN,29510,48.119421865, -3.960660135
LANGOLEN,29510,48.074170926, -3.91645942
LANDREVARZEC,29510,48.089632684, -4.074995991
LANDUDAL,29510,48.056689542, -3.97782625
LAZ,29520,48.135670782, -3.839934121
ST THOIS,29520,48.153395555, -3.906148338
CHATEAUNEUF DU FAOU,29520,48.18882094, -3.820859301
ST GOAZEC,29520,48.151652959, -3.765904007
COLLOREC,29530,48.291503253, -3.77133931
PLONEVEZ DU FAOU,29530,48.256054795, -3.823583854
LANDELEAU,29530,48.25300436, -3.732795183
LOQUEFFRET,29530,48.329874517, -3.858858879
SPEZET,29540,48.186108198, -3.691978915
PLONEVEZ PORZAY,29550,48.127499905, -4.239298599
PLOMODIERN,29550,48.180953919, -4.217322078
PLOEVEN,29550,48.158165175, -4.212882784
ST NIC,29550,48.210999053, -4.280456957
TREGARVAN,29560,48.237715504, -4.231047173
ARGOL,29560,48.249860637, -4.299018623
LANDEVENNEC,29560,48.281227541, -4.312657705
TELGRUC SUR MER,29560,48.233487792, -4.357264699
ROSCANVEL,29570,48.319042513, -4.558358697
CAMARET SUR MER,29570,48.268164414, -4.586900059
ST SEGAL,29590,48.235791501, -4.077581926
ROSNOEN,29590,48.27137602, -4.19854421
PONT DE BUIS LES QUIMERCH,29590,48.27446138, -4.107614705
PONT DE BUIS LES QUIMERCH,29590,48.27446138, -4.107614705
LE FAOU,29590,48.30555737, -4.142603226
LOPEREC,29590,48.301668943, -4.034666916
MORLAIX,29600,48.60016464, -3.820230779
ST MARTIN DES CHAMPS,29600,48.576055953, -3.85597078
PLOURIN LES MORLAIX,29600,48.521816494, -3.800350493
STE SEVE,29600,48.560269207, -3.889132251
GARLAN,29610,48.603848032, -3.766569386
PLOUIGNEAU,29610,48.573297271, -3.702219869
LANMEUR,29620,48.64250228, -3.721505036
GUIMAEC,29620,48.679210433, -3.706023519
PLOUEGAT GUERAND,29620,48.621683312, -3.670285182
PLOUGASNOU,29630,48.677417325, -3.811748333
PLOUGASNOU,29630,48.677417325, -3.811748333
ST JEAN DU DOIGT,29630,48.670027418, -3.762867875
BOLAZEC,29640,48.442782624, -3.594503207
LANNEANOU,29640,48.498207874, -3.665284957
PLOUGONVEN,29640,48.505630384, -3.727495397
SCRIGNAC,29640,48.426574545, -3.668330915
GUERLESQUIN,29650,48.53185947, -3.587714315
PLOUEGAT MOYSAN,29650,48.570137619, -3.616573238
BOTSORHEL,29650,48.506149636, -3.628782839
PLOUIGNEAU,29650,48.573297271, -3.702219869
CARANTEC,29660,48.656899875, -3.914569133
LOCQUENOLE,29670,48.623755703, -3.863504635
TAULE,29670,48.604497813, -3.899102308
HENVIC,29670,48.632652469, -3.931407953
ROSCOFF,29680,48.711973156, -3.988694813
PLOUYE,29690,48.320663328, -3.734425167
BERRIEN,29690,48.403021944, -3.765705405
BRENNILIS,29690,48.359908338, -3.85090142
HUELGOAT,29690,48.361688584, -3.758481504
LA FEUILLEE,29690,48.391163352, -3.852136817
POULLAOUEN,29690,48.347877827, -3.643645763
BOTMEUR,29690,48.376854751, -3.922714385
PLOMELIN,29700,47.935833793, -4.150094698
PLUGUFFAN,29700,47.972204996, -4.187525044
GUILER SUR GOYEN,29710,48.016832915, -4.361193002
PEUMERIT,29710,47.946755348, -4.295844158
PLONEIS,29710,48.011116596, -4.209345829
PLOGASTEL ST GERMAIN,29710,47.977413063, -4.263779791
PLOZEVET,29710,47.98289482, -4.40959532
GOURLIZON,29710,48.025375337, -4.269591078
LANDUDEC,29710,47.995270446, -4.328043827
POULDREUZIC,29710,47.961161748, -4.363857699
PLONEOUR LANVERN,29720,47.908563491, -4.265120982
PLOVAN,29720,47.932953107, -4.359921263
TREGUENNEC,29720,47.884821497, -4.339132034
TREOGAT,29720,47.909598454, -4.341089103
GUILVINEC,29730,47.800365354, -4.285924684
TREFFIAGAT,29730,47.804975991, -4.26008324
PLOBANNALEC LESCONIL,29740,47.821008468, -4.228010061
PLOBANNALEC LESCONIL,29740,47.821008468, -4.228010061
LOCTUDY,29750,47.825013886, -4.187715332
PENMARCH,29760,47.812348408, -4.341773283
PENMARCH,29760,47.812348408, -4.341773283
AUDIERNE,29770,48.027732606, -4.561426721
GOULIEN,29770,48.058422749, -4.592583357
CLEDEN CAP SIZUN,29770,48.054008985, -4.656158694
AUDIERNE,29770,48.027732606, -4.561426721
PLOGOFF,29770,48.035058215, -4.67942562
PRIMELIN,29770,48.028981693, -4.605239952
PLOUHINEC,29780,48.014225139, -4.485643289
BEUZEC CAP SIZUN,29790,48.07166904, -4.507384691
PONT CROIX,29790,48.046355308, -4.497606335
CONFORT MEILARS,29790,48.056033086, -4.434726734
MAHALON,29790,48.027138421, -4.419504083
PENCRAN,29800,48.443706991, -4.221168317
PLOUDIRY,29800,48.457449177, -4.129289049
ST URBAIN,29800,48.397067074, -4.222058635
LANDERNEAU,29800,48.451106759, -4.264150685
LA ROCHE MAURICE,29800,48.473430798, -4.19458795
ST DIVY,29800,48.454309269, -4.330192387
LA MARTYRE,29800,48.437046918, -4.169957627
ST THONAN,29800,48.47710363, -4.322689802
TREMAOUEZAN,29800,48.508702664, -4.255796471
LA FOREST LANDERNEAU,29800,48.434156875, -4.314866666
PLOUEDERN,29800,48.482852391, -4.252730158
TREFLEVENEZ,29800,48.415558545, -4.175815799
PLOUMOGUER,29810,48.399748598, -4.715687528
LAMPAUL PLOUARZEL,29810,48.449988359, -4.764191484
PLOUARZEL,29810,48.438892741, -4.721074429
BRELES,29810,48.471187173, -4.687140619
BOHARS,29820,48.431361752, -4.521861946
GUILERS,29820,48.419107127, -4.562254202
ST PABU,29830,48.56236229, -4.619768097
LAMPAUL PLOUDALMEZEAU,29830,48.553750107, -4.647873723
PLOUDALMEZEAU,29830,48.537591074, -4.669742347
PLOUGUIN,29830,48.528931262, -4.592541073
PLOUDALMEZEAU,29830,48.537591074, -4.669742347
PLOURIN,29830,48.503032931, -4.68461586
PORSPODER,29840,48.498453995, -4.7541235
LANILDUT,29840,48.481944518, -4.732975408
LANDUNVEZ,29840,48.534440762, -4.730018051
PORSPODER,29840,48.498453995, -4.7541235
GOUESNOU,29850,48.446701458, -4.46323582
PLOUVIEN,29860,48.539471667, -4.465366389
KERSAINT PLABENNEC,29860,48.478849478, -4.362548193
PLABENNEC,29860,48.49366393, -4.41949551
LE DRENNEC,29860,48.533043997, -4.381945582
BOURG BLANC,29860,48.495756508, -4.50003105
LANDEDA,29870,48.589169111, -4.576775781
LANNILIS,29870,48.56994779, -4.524874372
COAT MEAL,29870,48.506017555, -4.539774887
LANDEDA,29870,48.589169111, -4.576775781
TREGLONOU,29870,48.547560955, -4.547494432
PLOUGUERNEAU,29880,48.603431526, -4.490978256
GUISSENY,29880,48.617083042, -4.411604236
PLOUNEOUR BRIGNOGAN PLAGES,29890,48.652661473, -4.330032275
PLOUNEOUR BRIGNOGAN PLAGES,29890,48.652661473, -4.330032275
KERLOUAN,29890,48.647791027, -4.378665518
GOULVEN,29890,48.623830137, -4.295727777
CONCARNEAU,29900,47.896434353, -3.907154683
TREGUNC,29910,47.838210908, -3.841064391
NEVEZ,29920,47.815466332, -3.775901861
NEVEZ,29920,47.815466332, -3.775901861
PONT AVEN,29930,47.872215107, -3.76572829
LA FORET FOUESNANT,29940,47.920548648, -3.968055745
BENODET,29950,47.878417296, -4.076058689
GOUESNACH,29950,47.917204781, -4.110905871
CLOHARS FOUESNANT,29950,47.898169229, -4.082833818
TREGOUREZ,29970,48.105826868, -3.871582096
ILE TUDY,29980,47.853687529, -4.160682849
ILE DE SEIN,29990,48.03142099, -4.838371381
RENNES,35000,48.111680407, -1.681868718
LA FRESNAIS,35111,48.587687476, -1.835208959
LILLEMER,35111,48.570817632, -1.854967085
DOMAGNE,35113,48.067437398, -1.406221822
DOMAGNE,35113,48.067437398, -1.406221822
ST BENOIT DES ONDES,35114,48.613513629, -1.861052615
LA BOUSSAC,35120,48.51685482, -1.648943478
CHERRUEIX,35120,48.594855555, -1.71550859
MONT DOL,35120,48.57083808, -1.758182893
BAGUER PICAN,35120,48.549892404, -1.691120364
BROUALAN,35120,48.47528511, -1.66115802
HIREL,35120,48.593618909, -1.809188885
HIREL,35120,48.593618909, -1.809188885
ST MARCAN,35120,48.585259427, -1.628052573
EPINIAC,35120,48.499724537, -1.703047179
BAGUER MORVAN,35120,48.504865519, -1.771688804
DOL DE BRETAGNE,35120,48.53657567, -1.742081591
ROZ LANDRIEUX,35120,48.54581768, -1.817518809
ST BROLADRE,35120,48.580120857, -1.661164406
LA GUERCHE DE BRETAGNE,35130,47.943905146, -1.243222903
LA SELLE GUERCHAISE,35130,47.942824585, -1.170410634
MOUTIERS,35130,47.976013039, -1.205282543
RANNEE,35130,47.901406469, -1.200196605
DROUGES,35130,47.902172396, -1.260200779
VISSEICHE,35130,47.96029489, -1.298477406
ARBRISSEL,35130,47.927055054, -1.294968902
AVAILLES SUR SEICHE,35130,47.95811218, -1.185595694
MOUSSE,35130,47.917523189, -1.279407326
PONT PEAN,35131,48.010947119, -1.696373362
CHARTRES DE BRETAGNE,35131,48.044923778, -1.706450506
VEZIN LE COQUET,35132,48.117672493, -1.749252149
FLEURIGNE,35133,48.361731329, -1.111788141
LECOUSSE,35133,48.359867855, -1.221026406
LE CHATELLIER,35133,48.425897, -1.245714576
ST SAUVEUR DES LANDES,35133,48.346890049, -1.314272217
BEAUCE,35133,48.346757826, -1.155558635
BILLE,35133,48.293858764, -1.251123427
LAIGNELET,35133,48.379693794, -1.152890021
LE LOROUX,35133,48.394838477, -1.082981245
ROMAGNE,35133,48.344541228, -1.262508701
LUITRE DOMPIERRE,35133,48.286812702, -1.134053358
PARIGNE,35133,48.425640614, -1.197695447
ST GERMAIN EN COGLES,35133,48.397527708, -1.264843898
LA SELLE EN LUITRE,35133,48.320559708, -1.150905597
LA CHAPELLE JANSON,35133,48.335544395, -1.085407775
JAVENE,35133,48.317090679, -1.205977158
LANDEAN,35133,48.413114562, -1.147801862
COESMES,35134,47.872210783, -1.416270817
THOURIE,35134,47.848548707, -1.458039729
STE COLOMBE,35134,47.895370125, -1.457512661
CHANTEPIE,35135,48.082025446, -1.603859478
ST JACQUES DE LA LANDE,35136,48.076118615, -1.722558013
PLEUMELEUC,35137,48.183417782, -1.893568876
LA NOUAYE,35137,48.166354045, -1.974724928
BEDEE,35137,48.18675058, -1.950020714
MEZIERES SUR COUESNON,35140,48.296882523, -1.43855502
RIVES DU COUESNON,35140,48.284927722, -1.345743452
RIVES DU COUESNON,35140,48.284927722, -1.345743452
ST OUEN DES ALLEUX,35140,48.326848495, -1.427721092
GOSNE,35140,48.250380555, -1.458664152
RIVES DU COUESNON,35140,48.284927722, -1.345743452
LA CHAPELLE ST AUBERT,35140,48.309918506, -1.314676226
ST HILAIRE DES LANDES,35140,48.338312694, -1.366574834
RIVES DU COUESNON,35140,48.284927722, -1.345743452
ST AUBIN DU CORMIER,35140,48.258346134, -1.420952369
ST CHRISTOPHE DE VALAINS,35140,48.341370822, -1.45143647
JANZE,35150,47.942819635, -1.500820323
AMANLIS,35150,47.999806826, -1.496122011
BOISTRUDAN,35150,47.975500716, -1.397422293
CHANTELOUP,35150,47.954056451, -1.624807759
CORPS NUDS,35150,47.982426456, -1.570161011
ESSE,35150,47.947944684, -1.430520112
PIRE CHANCE,35150,48.013516794, -1.421499868
BRIE,35150,47.951364395, -1.550563938
MONTERFIL,35160,48.060057611, -1.990377151
MONTFORT SUR MEU,35160,48.126116266, -1.963933977
LE VERGER,35160,48.06581629, -1.936318065
BRETEIL,35160,48.13824013, -1.910452531
TALENSAC,35160,48.091170747, -1.926136806
BRUZ,35170,48.025911899, -1.748505182
BRUZ,35170,48.025911899, -1.748505182
BECHEREL,35190,48.2962972, -1.942863634
LONGAULNAY,35190,48.309539615, -1.941104905
QUEBRIAC,35190,48.356574227, -1.813001902
ST DOMINEUC,35190,48.360565205, -1.869389411
TREVERIEN,35190,48.371167613, -1.92022486
ST THUAL,35190,48.335636892, -1.931787345
LA BAUSSAINE,35190,48.31294707, -1.896616166
LA CHAPELLE AUX FILTZMEENS,35190,48.381674453, -1.818063363
TRIMER,35190,48.344757088, -1.897228289
ST PERN,35190,48.281246623, -1.983124129
CARDROC,35190,48.284705384, -1.893575864
MINIAC SOUS BECHEREL,35190,48.281019759, -1.926872339
TINTENIAC,35190,48.323509405, -1.829943528
RENNES,35200,48.111680407, -1.681868718
COMBOURTILLE,35210,48.266245208, -1.264458954
LUITRE DOMPIERRE,35210,48.286812702, -1.134053358
MONTREUIL DES LANDES,35210,48.250872523, -1.227911983
PARCE,35210,48.271005707, -1.19468484
ST CHRISTOPHE DES BOIS,35210,48.226697084, -1.236374731
CHATILLON EN VENDELAIS,35210,48.22885041, -1.164752374
MONTAUTOUR,35210,48.204672623, -1.120830478
PRINCE,35210,48.237551571, -1.105855416
CHATEAUBOURG,35220,48.119808108, -1.40403902
CHATEAUBOURG,35220,48.119808108, -1.40403902
CHATEAUBOURG,35220,48.119808108, -1.40403902
ST DIDIER,35220,48.093265123, -1.357952517
ST JEAN SUR VILAINE,35220,48.121188134, -1.339791394
MARPIRE,35220,48.147043256, -1.3525635
NOYAL CHATILLON SUR SEICHE,35230,48.052319685, -1.662728532
NOYAL CHATILLON SUR SEICHE,35230,48.052319685, -1.662728532
ST ARMEL,35230,48.013354308, -1.580563523
BOURGBARRE,35230,47.988624621, -1.622400821
ORGERES,35230,47.985215896, -1.665760588
ST ERBLON,35230,48.018912087, -1.64259933
THORIGNE FOUILLARD,35235,48.156614494, -1.584439279
RETIERS,35240,47.905815254, -1.343751163
MARCILLE ROBERT,35240,47.958577597, -1.353755924
LE THEIL DE BRETAGNE,35240,47.917872147, -1.421841216
ANDOUILLE NEUVILLE,35250,48.297657345, -1.59581351
CHASNE SUR ILLET,35250,48.23539, -1.571415519
ST GERMAIN SUR ILLE,35250,48.250459681, -1.652029662
ST MEDARD SUR ILLE,35250,48.272995224, -1.670924977
ST SULPICE LA FORET,35250,48.212407534, -1.575873462
AUBIGNE,35250,48.298830254, -1.630951186
CHEVAIGNE,35250,48.224446064, -1.636306894
ST AUBIN D AUBIGNE,35250,48.261935057, -1.600351602
MOUAZE,35250,48.218232385, -1.607565691
CANCALE,35260,48.683242622, -1.865333553
CUGUEN,35270,48.440648262, -1.656344051
ST LEGER DES PRES,35270,48.388352499, -1.657128395
BONNEMAIN,35270,48.471175498, -1.761334343
COMBOURG,35270,48.408754722, -1.745342966
LANRIGAN,35270,48.391463328, -1.691952055
TREMEHEUC,35270,48.438558826, -1.697374151
LOURMAIS,35270,48.441496683, -1.732732675
MEILLAC,35270,48.420491151, -1.822575993
QUEDILLAC,35290,48.237792708, -2.143733987
LE CROUAIS,35290,48.209371712, -2.150995832
GAEL,35290,48.118492569, -2.228619025
ST MEEN LE GRAND,35290,48.192349808, -2.194995104
MUEL,35290,48.120061317, -2.162483977
ST ONEN LA CHAPELLE,35290,48.169476446, -2.15567786
FOUGERES,35300,48.352771263, -1.194408883
BREAL SOUS MONTFORT,35310,48.044855823, -1.865591922
CINTRE,35310,48.10859218, -1.885947268
MORDELLES,35310,48.085914654, -1.842661283
CHAVAGNE,35310,48.056320452, -1.786547463
ST THURIAL,35310,48.033491506, -1.940538722
LE SEL DE BRETAGNE,35320,47.898026519, -1.606300329
LA BOSSE DE BRETAGNE,35320,47.868166289, -1.588805281
LA COUYERE,35320,47.894155579, -1.501743431
SAULNIERES,35320,47.919206014, -1.57784156
LALLEU,35320,47.855952859, -1.522336952
CREVIN,35320,47.930330451, -1.656788878
PANCE,35320,47.888672375, -1.642834545
LE PETIT FOUGERAY,35320,47.927969263, -1.616225014
POLIGNE,35320,47.898984529, -1.686079119
TRESBOEUF,35320,47.88050423, -1.553518646
COMBLESSAC,35330,47.872362356, -2.088404393
VAL D ANAST,35330,47.900118581, -2.0223224
MERNEL,35330,47.898750244, -1.95287698
LES BRULAIS,35330,47.890718924, -2.056038453
LA CHAPELLE BOUEXIC,35330,47.937092981, -1.923024639
VAL D ANAST,35330,47.900118581, -2.0223224
LOUTEHEL,35330,47.937013529, -2.079637954
BOVEL,35330,47.956771612, -1.959768254
ST SEGLIN,35330,47.851770916, -2.026009171
LIFFRE,35340,48.204131984, -1.514377298
ERCE PRES LIFFRE,35340,48.254539781, -1.517032057
LA BOUEXIERE,35340,48.174546254, -1.437026892
LA GOUESNIERE,35350,48.603006761, -1.887280109
ST COULOMB,35350,48.677237284, -1.921140398
ST MELOIR DES ONDES,35350,48.638657152, -1.905853545
MEDREAC,35360,48.261190021, -2.060998579
BOISGERVILLY,35360,48.166812207, -2.083578171
LA CHAPELLE DU LOU DU LAC,35360,48.21578004, -1.993519164
MONTAUBAN DE BRETAGNE,35360,48.204274062, -2.065450873
LA CHAPELLE DU LOU DU LAC,35360,48.21578004, -1.993519164
ST UNIAC,35360,48.166999305, -2.032799831
MONTAUBAN DE BRETAGNE,35360,48.204274062, -2.065450873
LANDUJAN,35360,48.247669444, -2.008431452
ARGENTRE DU PLESSIS,35370,48.048415915, -1.138440886
ST GERMAIN DU PINEL,35370,48.004892571, -1.172684912
TORCE,35370,48.061284514, -1.270683073
BREAL SOUS VITRE,35370,48.092529231, -1.060770881
ETRELLES,35370,48.069743539, -1.215970424
GENNES SUR SEICHE,35370,47.997956603, -1.13291119
BRIELLES,35370,48.011590508, -1.098540288
LE PERTRE,35370,48.034612373, -1.056081331
MONDEVERT,35370,48.084506649, -1.090383618
PLELAN LE GRAND,35380,47.996659724, -2.079861467
MAXENT,35380,47.978321076, -2.016153538
ST PERAN,35380,48.056820978, -2.06452705
TREFFENDEL,35380,48.031645854, -2.008692214
PAIMPONT,35380,48.030311573, -2.173201511
GRAND FOUGERAY,35390,47.73420778, -1.728304469
STE ANNE SUR VILAINE,35390,47.734161793, -1.805152664
ST SULPICE DES LANDES,35390,47.776961884, -1.625721618
LA DOMINELAIS,35390,47.763436252, -1.673542957
ST MALO,35400,48.640048719, -1.980865007
ST MALO,35400,48.640048719, -1.980865007
ST MALO,35400,48.640048719, -1.980865007
ST MALO,35400,48.640048719, -1.980865007
ST MALO,35400,48.640048719, -1.980865007
CHATEAUGIRON,35410,48.048968229, -1.474638706
NOUVOITOU,35410,48.030580726, -1.552345417
DOMLOUP,35410,48.0684684, -1.54295343
CHATEAUGIRON,35410,48.048968229, -1.474638706
CHATEAUGIRON,35410,48.048968229, -1.474638706
LOUVIGNE DU DESERT,35420,48.48679995, -1.123481674
LA BAZOUGE DU DESERT,35420,48.44396455, -1.109672763
MELLE,35420,48.484389875, -1.191082025
VILLAMEE,35420,48.455676105, -1.219277675
MONTHAULT,35420,48.512339092, -1.175884682
POILLEY,35420,48.465975825, -1.256588671
LE FERRE,35420,48.486612438, -1.294215701
ST GEORGES DE REINTEMBAULT,35420,48.512984563, -1.235179946
ST GUINOUX,35430,48.580012533, -1.888639378
ST PERE MARC EN POULET,35430,48.584126939, -1.929247306
CHATEAUNEUF D ILLE ET VILAINE,35430,48.558025261, -1.928494794
ST JOUAN DES GUERETS,35430,48.603981667, -1.965289672
ST SULIAC,35430,48.570531765, -1.967277437
LA VILLE ES NONAIS,35430,48.549161799, -1.952303676
MONTREUIL SUR ILLE,35440,48.305604137, -1.668810851
FEINS,35440,48.328169248, -1.625908541
GUIPEL,35440,48.292447195, -1.723623456
DINGE,35440,48.346978143, -1.710256954
DOURDAIN,35450,48.19332383, -1.379902525
LIVRE SUR CHANGEON,35450,48.227214855, -1.34848339
MECE,35450,48.241175109, -1.286500505
VAL D IZE,35450,48.189822063, -1.305068773
LANDAVRAN,35450,48.161005236, -1.284832918
LES PORTES DU COGLAIS,35460,48.449190246, -1.335649608
ST MARC LE BLANC,35460,48.373397199, -1.397723784
MAEN ROCH,35460,48.400636918, -1.345728525
MAEN ROCH,35460,48.400636918, -1.345728525
LE TIERCENT,35460,48.350022963, -1.423469176
VAL COUESNON,35460,48.440079368, -1.46268206
VAL COUESNON,35460,48.440079368, -1.46268206
LES PORTES DU COGLAIS,35460,48.449190246, -1.335649608
LES PORTES DU COGLAIS,35460,48.449190246, -1.335649608
ST MARC LE BLANC,35460,48.373397199, -1.397723784
PLECHATEL,35470,47.875174658, -1.734109442
PLECHATEL,35470,47.875174658, -1.734109442
LA NOE BLANCHE,35470,47.795075182, -1.745846811
BAIN DE BRETAGNE,35470,47.830230111, -1.676337044
GUIPRY MESSAC,35480,47.821564405, -1.830472392
GUIPRY MESSAC,35480,47.821564405, -1.830472392
ST MALO DE PHILY,35480,47.867841549, -1.805403488
CHAUVIGNE,35490,48.37652357, -1.452166447
VIEUX VY SUR COUESNON,35490,48.334545923, -1.499153877
SENS DE BRETAGNE,35490,48.336389627, -1.554034633
GAHARD,35490,48.288216965, -1.527197455
ROMAZY,35490,48.380548984, -1.493199309
LA CHAPELLE ERBREE,35500,48.140358071, -1.0896589
TAILLIS,35500,48.184314015, -1.240049519
BALAZE,35500,48.177906445, -1.183241566
CHAMPEAUX,35500,48.13885915, -1.300822699
CORNILLE,35500,48.082325504, -1.31384462
ERBREE,35500,48.109336415, -1.116868389
POCE LES BOIS,35500,48.115040393, -1.259135752
ST AUBIN DES LANDES,35500,48.100366604, -1.291507241
ST M HERVE,35500,48.172504186, -1.111556071
MONTREUIL SOUS PEROUSE,35500,48.151152213, -1.242587848
VITRE,35500,48.114112003, -1.193482325
CESSON SEVIGNE,35510,48.120400207, -1.59724509
LA CHAPELLE DES FOUGERETZ,35520,48.177081793, -1.741313231
LA MEZIERE,35520,48.212650776, -1.750678342
MONTREUIL LE GAST,35520,48.243954182, -1.720396071
MELESSE,35520,48.219361883, -1.68958172
NOYAL SUR VILAINE,35530,48.091423976, -1.505240448
SERVON SUR VILAINE,35530,48.121132516, -1.457975915
BRECE,35530,48.110479219, -1.489810166
LE TRONCHET,35540,48.492859081, -1.841414172
PLERGUER,35540,48.528689836, -1.846075142
MINIAC MORVAN,35540,48.52473183, -1.895125004
MINIAC MORVAN,35540,48.52473183, -1.895125004
SIXT SUR AFF,35550,47.774880372, -2.04960519
BRUC SUR AFF,35550,47.814274771, -2.00617628
LOHEAC,35550,47.872591253, -1.888757472
ST GANTON,35550,47.769824505, -1.891042743
ST JUST,35550,47.764436292, -1.969131549
LIEURON,35550,47.851918694, -1.929676391
PIPRIAC,35550,47.811361881, -1.937297429
BAZOUGES LA PEROUSE,35560,48.440633568, -1.563596995
NOYAL SOUS BAZOUGES,35560,48.417519583, -1.624034624
ST REMY DU PLAIN,35560,48.376105515, -1.56642422
VAL COUESNON,35560,48.440079368, -1.46268206
MARCILLE RAOUL,35560,48.374837067, -1.61377678
VAL COUESNON,35560,48.440079368, -1.46268206
RIMOU,35560,48.387738972, -1.528373966
GUICHEN,35580,47.965347345, -1.790206811
LASSY,35580,47.972124737, -1.863996018
ST SENOUX,35580,47.910002646, -1.790014588
BAULON,35580,47.994959683, -1.929406329
GOVEN,35580,48.009791318, -1.839069242
GUICHEN,35580,47.965347345, -1.790206811
GUIGNEN,35580,47.923420363, -1.861984663
ST GILLES,35590,48.152246352, -1.853797645
LA CHAPELLE THOUARAULT,35590,48.125188415, -1.858215357
L HERMITAGE,35590,48.1221055, -1.816343302
CLAYES,35590,48.179059235, -1.853756753
BAINS SUR OUST,35600,47.712200336, -2.075624016
REDON,35600,47.661216252, -2.08016417
STE MARIE,35600,47.693519577, -2.013587106
PLEINE FOUGERES,35610,48.531066224, -1.573670717
ST GEORGES DE GREHAIGNE,35610,48.578803427, -1.54964785
TRANS LA FORET,35610,48.487722202, -1.603796369
ROZ SUR COUESNON,35610,48.596239636, -1.593200502
VIEUX VIEL,35610,48.501362594, -1.55338729
SAINS,35610,48.555987628, -1.603981171
SOUGEAL,35610,48.502288489, -1.515062705
ERCE EN LAMEE,35620,47.817939975, -1.582416731
TEILLAY,35620,47.807499789, -1.522451581
LANGOUET,35630,48.254591018, -1.809648195
ST SYMPHORIEN,35630,48.280269654, -1.803148709
VIGNOC,35630,48.256947791, -1.76362755
HEDE BAZOUGES,35630,48.302176978, -1.777738898
HEDE BAZOUGES,35630,48.302176978, -1.777738898
ST GONDRAN,35630,48.268128154, -1.82537019
LA CHAPELLE CHAUSSEE,35630,48.266710925, -1.863964399
ST BRIEUC DES IFFS,35630,48.303795006, -1.84330011
LES IFFS,35630,48.294147859, -1.866345129
CHELUN,35640,47.85485826, -1.243524251
MARTIGNE FERCHAUD,35640,47.828497078, -1.327648466
EANCE,35640,47.82372125, -1.251937613
FORGES LA FORET,35640,47.8615571, -1.292912476
LE RHEU,35650,48.097273889, -1.781007436
LE RHEU,35650,48.097273889, -1.781007436
LANGON,35660,47.733735609, -1.871838736
LA CHAPELLE DE BRAIN,35660,47.697573578, -1.93488095
RENAC,35660,47.72782278, -1.966755244
LA CHAPELLE DE BRAIN,35660,47.697573578, -1.93488095
BAIS,35680,48.011079769, -1.305387481
MOULINS,35680,48.008781973, -1.362902107
VERGEAL,35680,48.035926798, -1.255657068
DOMALAIN,35680,47.99921643, -1.239370169
PIRE CHANCE,35680,48.013516794, -1.421499868
LOUVIGNE DE BAIS,35680,48.052348459, -1.338702593
ACIGNE,35690,48.146472503, -1.519156922
RENNES,35700,48.111680407, -1.681868718
PLESDER,35720,48.417908084, -1.929973377
PLEUGUENEUC,35720,48.404539119, -1.885753254
MESNIL ROC H,35720,48.45801406, -1.8778414
MESNIL ROC H,35720,48.45801406, -1.8778414
MESNIL ROC H,35720,48.45801406, -1.8778414
PLEURTUIT,35730,48.582704314, -2.060075714
PACE,35740,48.152674506, -1.777329248
ST MALON SUR MEL,35750,48.094371208, -2.111534733
IFFENDIC,35750,48.113977658, -2.024155892
ST GONLAY,35750,48.113097851, -2.076230518
BLERUAIS,35750,48.115852624, -2.115549866
ST MAUGAN,35750,48.136724076, -2.102191241
MONTGERMONT,35760,48.154003362, -1.717025903
ST GREGOIRE,35760,48.158493729, -1.685337689
VERN SUR SEICHE,35770,48.052832822, -1.605159583
LA RICHARDAIS,35780,48.609177009, -2.043645276
ST BRIAC SUR MER,35800,48.615694771, -2.123852974
DINARD,35800,48.624750513, -2.062084653
ST LUNAIRE,35800,48.620039988, -2.096788107
BETTON,35830,48.181255767, -1.646455875
GEVEZE,35850,48.213318833, -1.799006208
ROMILLE,35850,48.222420169, -1.878721428
PARTHENAY DE BRETAGNE,35850,48.188070994, -1.829118412
LANGAN,35850,48.236015015, -1.84518875
IRODOUER,35850,48.246246433, -1.950393748
LE MINIHIC SUR RANCE,35870,48.57590288, -2.013128654
BOURG DES COMPTES,35890,47.921452877, -1.722294092
LAILLE,35890,47.967022301, -1.713936819
LE VIVIER SUR MER,35960,48.59749784, -1.780929064
VANNES,56000,47.659791963, -2.757100271
LORIENT,56100,47.750711617, -3.378920629
GOURIN,56110,48.136588938, -3.604144833
ROUDOUALLEC,56110,48.120009317, -3.694337668
LE SAINT,56110,48.096866464, -3.565019487
LA CROIX HELLEAN,56120,47.963764752, -2.51103388
GUEGON,56120,47.925504665, -2.586230282
FORGES DE LANOUEE,56120,48.010692279, -2.580676769
FORGES DE LANOUEE,56120,48.010692279, -2.580676769
ST SERVANT,56120,47.899196576, -2.512037125
HELLEAN,56120,47.967923489, -2.480636576
LA GREE ST LAURENT,56120,48.00158581, -2.503987512
JOSSELIN,56120,47.954109117, -2.547893669
LANTILLAC,56120,47.951469491, -2.660408507
PLEUGRIFFET,56120,47.994156386, -2.691264048
MARZAN,56130,47.541392612, -2.353511797
LA ROCHE BERNARD,56130,47.51954187, -2.302657759
FEREL,56130,47.48717969, -2.339653888
PEAULE,56130,47.582874593, -2.335522017
CAMOEL,56130,47.477623944, -2.398693476
NIVILLAC,56130,47.540561642, -2.249458487
ST DOLAY,56130,47.54718487, -2.172189892
THEHILLAC,56130,47.55196028, -2.11844535
MISSIRIAC,56140,47.823856619, -2.355901522
RUFFIAC,56140,47.814045411, -2.285064145
ST LAURENT SUR OUST,56140,47.791784467, -2.313935972
ST MARCEL,56140,47.811592521, -2.416898853
CARO,56140,47.86214178, -2.327688306
REMINIAC,56140,47.863585231, -2.252678361
ST CONGARD,56140,47.767927458, -2.328266453
TREAL,56140,47.832862307, -2.229180192
ST ABRAHAM,56140,47.848117694, -2.406372685
BOHAL,56140,47.78470479, -2.447014479
MALESTROIT,56140,47.807347733, -2.38700699
PLEUCADEUC,56140,47.769324495, -2.386172758
BAUD,56150,47.875553114, -3.030708242
GUENIN,56150,47.905506128, -2.96648019
ST BARTHELEMY,56150,47.926866163, -3.040579406
SEGLIEN,56160,48.102464719, -3.151731901
LIGNOL,56160,48.02730613, -3.271658004
LOCMALO,56160,48.06247434, -3.183177186
PERSQUEN,56160,48.014984362, -3.218837642
LANGOELAN,56160,48.121011246, -3.233228076
PLOERDUT,56160,48.092623611, -3.288195332
GUEMENE SUR SCORFF,56160,48.066113437, -3.205176255
HOEDIC,56170,47.339850821, -2.875335445
QUIBERON,56170,47.487962212, -3.122714113
ILE D HOUAT,56170,47.389997905, -2.968742032
LA TRINITE SURZUR,56190,47.604979517, -2.592064463
AMBON,56190,47.557163, -2.541061818
ARZAL,56190,47.521380902, -2.404143814
LE GUERNO,56190,47.590967833, -2.399742517
LAUZACH,56190,47.611417147, -2.556142698
MUZILLAC,56190,47.555026291, -2.473645357
BILLIERS,56190,47.523493733, -2.479381901
NOYAL MUZILLAC,56190,47.599595078, -2.45951403
COURNON,56200,47.749467057, -2.09823698
LA GACILLY,56200,47.763828747, -2.14023729
LA GACILLY,56200,47.763828747, -2.14023729
ST MARTIN SUR OUST,56200,47.762734902, -2.264528098
LES FOUGERETS,56200,47.748210999, -2.197434587
LA GACILLY,56200,47.763828747, -2.14023729
LIMERZEL,56220,47.636056342, -2.361975436
MALANSAC,56220,47.686382249, -2.299506053
ROCHEFORT EN TERRE,56220,47.69896182, -2.344427658
ST JACUT LES PINS,56220,47.67785632, -2.212340143
PEILLAC,56220,47.715286814, -2.218840199
CADEN,56220,47.640465758, -2.29940429
PLUHERLIN,56220,47.715073695, -2.370212879
ST GRAVE,56220,47.722799801, -2.288555927
LARRE,56230,47.71595916, -2.4943615
QUESTEMBERT,56230,47.663936666, -2.43650753
MOLAC,56230,47.736036899, -2.439303315
BERRIC,56230,47.63852606, -2.527347397
LE COURS,56230,47.749125488, -2.508145385
PLOUAY,56240,47.927051006, -3.337276295
INGUINIEL,56240,47.955663014, -3.260335127
LANVAUDAN,56240,47.889450064, -3.264233641
CALAN,56240,47.880402675, -3.312145724
BERNE,56240,47.984845172, -3.373760772
MONTERBLANC,56250,47.731426364, -2.696314299
ELVEN,56250,47.732777259, -2.592959731
SULNIAC,56250,47.660294803, -2.562207769
TREFFLEAN,56250,47.678258599, -2.622102534
ST NOLFF,56250,47.69863388, -2.665950286
TREDION,56250,47.782989524, -2.583971546
LA VRAIE CROIX,56250,47.689981017, -2.518979605
LARMOR PLAGE,56260,47.715955025, -3.391638203
PLOEMEUR,56270,47.732532156, -3.442277001
PORT LOUIS,56290,47.709618118, -3.349748873
NEULLIAC,56300,48.121785081, -2.971978341
PONTIVY,56300,48.073196334, -2.970642339
ST THURIAU,56300,48.017181057, -2.943536857
KERGRIST,56300,48.147326209, -2.928687353
LE SOURN,56300,48.038384224, -2.994843126
MALGUENAC,56300,48.069034426, -3.056524909
MELRAND,56310,47.975028678, -3.100137196
PLUMELIAU BIEUZY,56310,47.972779654, -2.992531365
BUBRY,56310,47.968840088, -3.176179002
QUISTINIC,56310,47.909249669, -3.127398095
GUERN,56310,48.034724266, -3.102315608
PRIZIAC,56320,48.055585933, -3.43507886
LE FAOUET,56320,48.048725954, -3.508729907
MESLAN,56320,47.987787085, -3.447800409
LANVENEGEN,56320,48.004299964, -3.531714116
CAMORS,56330,47.830036303, -3.000061211
PLUVIGNER,56330,47.782651228, -3.015871696
PLUVIGNER,56330,47.782651228, -3.015871696
CARNAC,56340,47.608568525, -3.069968945
PLOUHARNEL,56340,47.600512357, -3.122224592
ALLAIRE,56350,47.639321756, -2.177336284
ST PERREUX,56350,47.672510599, -2.122715049
ST GORGON,56350,47.642124298, -2.238225623
ST JEAN LA POTERIE,56350,47.64545314, -2.122800698
BEGANNE,56350,47.602737037, -2.244241601
ST VINCENT SUR OUST,56350,47.702387659, -2.148390523
RIEUX,56350,47.60581778, -2.125696147
SAUZON,56360,47.354062986, -3.230901296
LE PALAIS,56360,47.342732992, -3.170912084
BANGOR,56360,47.313069437, -3.192784025
LOCMARIA,56360,47.302154316, -3.105309494
SARZEAU,56370,47.524108986, -2.751721049
LE TOUR DU PARC,56370,47.529413739, -2.654119297
BEIGNON,56380,47.965835344, -2.180339896
MONTENEUF,56380,47.878442912, -2.192897567
ST MALO DE BEIGNON,56380,47.956136106, -2.144731056
PORCARO,56380,47.920002729, -2.193556498
GUER,56380,47.907833526, -2.129142173
GUER,56380,47.907833526, -2.129142173
GRAND CHAMP,56390,47.760815001, -2.847811035
LOCQUELTAS,56390,47.763940153, -2.758140606
BRANDIVY,56390,47.784224988, -2.922225374
LOCMARIA GRAND CHAMP,56390,47.759977747, -2.790177563
COLPO,56390,47.816600324, -2.806580262
PLOUGOUMELEN,56400,47.661158562, -2.897914064
PLUMERGAT,56400,47.727805712, -2.922867803
LE BONO,56400,47.636956039, -2.939215911
STE ANNE D AURAY,56400,47.700406765, -2.952858221
AURAY,56400,47.667479044, -2.990480599
PLOEMEL,56400,47.659528545, -3.07155781
BRECH,56400,47.709356381, -3.024142132
PLUNERET,56400,47.678430059, -2.945824584
ERDEVEN,56410,47.637063503, -3.156160436
ETEL,56410,47.656685091, -3.198362331
PLUMELEC,56420,47.825785735, -2.623532091
CRUGUEL,56420,47.878077778, -2.590620331
PLAUDREN,56420,47.779326416, -2.695216598
GUEHENNO,56420,47.891871815, -2.65173195
BILLIO,56420,47.867798245, -2.647565242
BULEON,56420,47.920177593, -2.675045402
MAURON,56430,48.082675719, -2.304884581
CONCORET,56430,48.065570226, -2.209424921
NEANT SUR YVEL,56430,48.022478006, -2.333055924
TREHORENTEUC,56430,48.004180848, -2.295374439
BRIGNAC,56430,48.112177029, -2.395213855
ST BRIEUC DE MAURON,56430,48.089978637, -2.361207694
ST LERY,56430,48.091184213, -2.263744791
LANGUIDIC,56440,47.836984625, -3.147860566
LE HEZO,56450,47.580786088, -2.690881693
SURZUR,56450,47.569107019, -2.627192139
THEIX NOYALO,56450,47.631759109, -2.651784102
THEIX NOYALO,56450,47.631759109, -2.651784102
ST ARMEL,56450,47.564484913, -2.713038288
ST GUYOMARD,56460,47.779433861, -2.50230085
VAL D OUST,56460,47.870825024, -2.431663823
LIZIO,56460,47.864423354, -2.520225179
SERENT,56460,47.824857271, -2.497399367
VAL D OUST,56460,47.870825024, -2.431663823
LA TRINITE SUR MER,56470,47.589980808, -3.036318716
ST PHILIBERT,56470,47.587869887, -3.000797545
CLEGUEREC,56480,48.128101089, -3.06365638
ST AIGNAN,56480,48.182188636, -3.049019465
STE BRIGITTE,56480,48.177042049, -3.11040789
SILFIAC,56480,48.144879851, -3.172961745
GUILLIERS,56490,48.051945694, -2.415107194
MENEAC,56490,48.131560657, -2.454076691
MOHON,56490,48.063250948, -2.494912872
EVRIGUET,56490,48.083486637, -2.404963276
LA TRINITE PORHOET,56490,48.09858029, -2.524164736
ST MALO DES TROIS FONTAINES,56490,48.016962979, -2.469012229
BIGNAN,56500,47.877128765, -2.759589533
EVELLYS,56500,47.974816164, -2.870054353
EVELLYS,56500,47.974816164, -2.870054353
LA CHAPELLE NEUVE,56500,47.855792123, -2.933979588
REGUINY,56500,47.986293689, -2.771251437
LOCMINE,56500,47.880139389, -2.837526831
MOUSTOIR AC,56500,47.842977029, -2.858736524
PLUMELIN,56500,47.882321883, -2.887457637
ST ALLOUESTRE,56500,47.908351408, -2.73618227
MOREAC,56500,47.933038525, -2.803850649
EVELLYS,56500,47.974816164, -2.870054353
RADENAC,56500,47.949123642, -2.713192616
ST PIERRE QUIBERON,56510,47.522671523, -3.138504295
GUIDEL,56520,47.794418189, -3.492427568
QUEVEN,56530,47.784331042, -3.418526738
GESTEL,56530,47.808322546, -3.437634061
ST CARADEC TREGOMEL,56540,48.032460733, -3.351418239
LE CROISTY,56540,48.061466933, -3.37320876
KERNASCLEDEN,56540,48.008452888, -3.329088072
ST TUGDUAL,56540,48.096136779, -3.366970607
BELZ,56550,47.672411176, -3.161744463
LOCOAL MENDON,56550,47.702031769, -3.1095634
GUISCRIFF,56560,48.042771619, -3.623328709
LOCMIQUELIC,56570,47.730934277, -3.329045142
BREHAN,56580,48.070150572, -2.686850781
CREDIN,56580,48.038955118, -2.764996913
ROHAN,56580,48.089529609, -2.742774706
ROHAN,56580,48.089529609, -2.742774706
ROHAN,56580,48.089529609, -2.742774706
GROIX,56590,47.637219168, -3.464382216
LANESTER,56600,47.768795862, -3.327427344
ARRADON,56610,47.633874493, -2.822764777
PONT SCORFF,56620,47.839349037, -3.41961778
CLEGUER,56620,47.865272894, -3.365175889
LANGONNET,56630,48.131846317, -3.481212881
ARZON,56640,47.547656248, -2.886486806
ARZON,56640,47.547656248, -2.886486806
INZINZAC LOCHRIST,56650,47.856381763, -3.251954912
ST JEAN BREVELAY,56660,47.831311015, -2.727237193
RIANTEC,56670,47.718519644, -3.30296561
GAVRES,56680,47.695126529, -3.334342308
PLOUHINEC,56680,47.692459316, -3.23326746
LANDEVANT,56690,47.771689809, -3.113336938
LANDAUL,56690,47.741506472, -3.099443975
NOSTANG,56690,47.755028768, -3.17479234
BRANDERION,56700,47.792378094, -3.193270414
MERLEVENEZ,56700,47.732694981, -3.244200009
HENNEBONT,56700,47.807604985, -3.270366459
STE HELENE,56700,47.717419522, -3.18525192
KERVIGNAC,56700,47.768787324, -3.247912575
ST GILDAS DE RHUYS,56730,47.512372747, -2.832424664
LOCMARIAQUER,56740,47.577600653, -2.96276473
DAMGAN,56750,47.522360225, -2.585773021
PENESTIN,56760,47.473024615, -2.465433896
PLOURAY,56770,48.134288053, -3.375672875
ILE AUX MOINES,56780,47.583799434, -2.854158374
GUILLAC,56800,47.923891021, -2.479239615
PLOERMEL,56800,47.917356575, -2.379915883
AUGAN,56800,47.912505767, -2.267644551
CAMPENEAC,56800,47.962620773, -2.277925325
GOURHEL,56800,47.93926141, -2.359142948
LOYAT,56800,47.992380372, -2.384307511
TAUPONT,56800,47.962638334, -2.442675343
MONTERTELOT,56800,47.885921308, -2.412428125
PLOERMEL,56800,47.917356575, -2.379915883
VAL D OUST,56800,47.870825024, -2.431663823
ILE D ARZ,56840,47.592230874, -2.802023605
CAUDAN,56850,47.813267455, -3.341411551
SENE,56860,47.62209874, -2.725704535
LARMOR BADEN,56870,47.591961525, -2.899788197
BADEN,56870,47.614999248, -2.903301929
PLOEREN,56880,47.661790536, -2.84286151
ST AVE,56890,47.698698157, -2.74177733
MEUCON,56890,47.723957223, -2.773862267
PLESCOP,56890,47.697603123, -2.831139936
CARENTOIR,56910,47.823364182, -2.131027327
CARENTOIR,56910,47.823364182, -2.131027327
ST NICOLAS DU TERTRE,56910,47.79613606, -2.21782565
ST GERAND CROIXANVEC,56920,48.108887728, -2.886072133
GUELTAS,56920,48.091605614, -2.810458132
NOYAL PONTIVY,56920,48.061462547, -2.891152065
ST GERAND CROIXANVEC,56920,48.108887728, -2.886072133
KERFOURN,56920,48.043261614, -2.837352822
ST GONNERY,56920,48.125825844, -2.821060075
PLUMELIAU BIEUZY,56930,47.972779654, -2.992531365
CRACH,56950,47.630421243, -3.000327805
